{
  "type": "FeatureCollection",
  "features": [
    {
      "type": "Feature",
      "properties": {
        "norad_id": 36390,
        "name": "IRIDIUM 33 DEB",
        "group": "iridium-33-debris",
        "lat": 37.042683498233686,
        "lon": -64.37893054775594,
        "alt_km": 641.1871817039273,
        "timestamp": "2025-12-27T02:10:16.574755+00:00",
        "meta_object_name": "IRIDIUM 33 DEB",
        "meta_object_id": "1997-051VU",
        "meta_epoch": "2025-12-25T02:44:48.274368",
        "meta_mean_motion": 14.737665,
        "meta_eccentricity": 0.00323952,
        "meta_inclination": 86.292,
        "meta_ra_of_asc_node": 293.7212,
        "meta_arg_of_pericenter": 120.9212,
        "meta_mean_anomaly": 239.5197,
        "meta_ephemeris_type": 0,
        "meta_classification_type": "U",
        "meta_norad_cat_id": 36390,
        "meta_element_set_no": 999,
        "meta_rev_at_epoch": 66444,
        "meta_bstar": 0.0011373598,
        "meta_mean_motion_dot": 7.522e-05,
        "meta_mean_motion_ddot": 0,
        "tle_line1": "1 36390U 97051VU  25359.11444762  .00007522  00000+0  11374-2 0  9999",
        "tle_line2": "2 36390  86.2920 293.7212 0032395 120.9212 239.5197 14.73766500664444"
      },
      "geometry": {
        "type": "Point",
        "coordinates": [
          -64.37893054775594,
          37.042683498233686
        ]
      }
    },
    {
      "type": "Feature",
      "properties": {
        "norad_id": 36483,
        "name": "IRIDIUM 33 DEB",
        "group": "iridium-33-debris",
        "lat": 24.874465784127242,
        "lon": 48.02836817431456,
        "alt_km": 734.5767332551077,
        "timestamp": "2025-12-27T02:10:16.574765+00:00",
        "meta_object_name": "IRIDIUM 33 DEB",
        "meta_object_id": "1997-051VZ",
        "meta_epoch": "2025-12-24T20:54:18.257760",
        "meta_mean_motion": 14.45850229,
        "meta_eccentricity": 0.0011373,
        "meta_inclination": 86.3782,
        "meta_ra_of_asc_node": 47.2957,
        "meta_arg_of_pericenter": 92.8078,
        "meta_mean_anomaly": 267.4426,
        "meta_ephemeris_type": 0,
        "meta_classification_type": "U",
        "meta_norad_cat_id": 36483,
        "meta_element_set_no": 999,
        "meta_rev_at_epoch": 65321,
        "meta_bstar": 0.0005014,
        "meta_mean_motion_dot": 1.8e-05,
        "meta_mean_motion_ddot": 0,
        "tle_line1": "1 36483U 97051VZ  25358.87104465  .00001800  00000+0  50140-3 0  9995",
        "tle_line2": "2 36483  86.3782  47.2957 0011373  92.8078 267.4426 14.45850229653211"
      },
      "geometry": {
        "type": "Point",
        "coordinates": [
          48.02836817431456,
          24.874465784127242
        ]
      }
    },
    {
      "type": "Feature",
      "properties": {
        "norad_id": 36490,
        "name": "IRIDIUM 33 DEB",
        "group": "iridium-33-debris",
        "lat": 55.46709993033417,
        "lon": 9.288220512323456,
        "alt_km": 631.8337664471583,
        "timestamp": "2025-12-27T02:10:16.574775+00:00",
        "meta_object_name": "IRIDIUM 33 DEB",
        "meta_object_id": "1997-051WG",
        "meta_epoch": "2025-12-26T17:47:15.593280",
        "meta_mean_motion": 14.76486915,
        "meta_eccentricity": 0.0004844,
        "meta_inclination": 86.3658,
        "meta_ra_of_asc_node": 4.1463,
        "meta_arg_of_pericenter": 53.891,
        "meta_mean_anomaly": 306.2757,
        "meta_ephemeris_type": 0,
        "meta_classification_type": "U",
        "meta_norad_cat_id": 36490,
        "meta_element_set_no": 999,
        "meta_rev_at_epoch": 86691,
        "meta_bstar": 0.0017569,
        "meta_mean_motion_dot": 0.00012267,
        "meta_mean_motion_ddot": 0,
        "tle_line1": "1 36490U 97051WG  25360.74115270  .00012267  00000+0  17569-2 0  9994",
        "tle_line2": "2 36490  86.3658   4.1463 0004844  53.8910 306.2757 14.76486915866915"
      },
      "geometry": {
        "type": "Point",
        "coordinates": [
          9.288220512323456,
          55.46709993033417
        ]
      }
    },
    {
      "type": "Feature",
      "properties": {
        "norad_id": 36493,
        "name": "IRIDIUM 33 DEB",
        "group": "iridium-33-debris",
        "lat": 49.78553408035777,
        "lon": -179.01859676432073,
        "alt_km": 677.6601888842242,
        "timestamp": "2025-12-27T02:10:16.574785+00:00",
        "meta_object_name": "IRIDIUM 33 DEB",
        "meta_object_id": "1997-051WK",
        "meta_epoch": "2025-12-23T07:26:33.103968",
        "meta_mean_motion": 14.65359392,
        "meta_eccentricity": 0.00090124,
        "meta_inclination": 86.3569,
        "meta_ra_of_asc_node": 6.9826,
        "meta_arg_of_pericenter": 326.7527,
        "meta_mean_anomaly": 33.3119,
        "meta_ephemeris_type": 0,
        "meta_classification_type": "U",
        "meta_norad_cat_id": 36493,
        "meta_element_set_no": 999,
        "meta_rev_at_epoch": 74673,
        "meta_bstar": 0.0013164613,
        "meta_mean_motion_dot": 7.136e-05,
        "meta_mean_motion_ddot": 0,
        "tle_line1": "1 36493U 97051WK  25357.31010537  .00007136  00000+0  13165-2 0  9993",
        "tle_line2": "2 36493  86.3569   6.9826 0009012 326.7527  33.3119 14.65359392746733"
      },
      "geometry": {
        "type": "Point",
        "coordinates": [
          -179.01859676432073,
          49.78553408035777
        ]
      }
    },
    {
      "type": "Feature",
      "properties": {
        "norad_id": 37548,
        "name": "IRIDIUM 33 DEB",
        "group": "iridium-33-debris",
        "lat": -43.63108593789786,
        "lon": 33.63882864564801,
        "alt_km": 746.1564799424496,
        "timestamp": "2025-12-27T02:10:16.574796+00:00",
        "meta_object_name": "IRIDIUM 33 DEB",
        "meta_object_id": "1997-051XH",
        "meta_epoch": "2025-12-15T20:39:30.861504",
        "meta_mean_motion": 14.51326297,
        "meta_eccentricity": 0.00258157,
        "meta_inclination": 86.3522,
        "meta_ra_of_asc_node": 42.0105,
        "meta_arg_of_pericenter": 178.4192,
        "meta_mean_anomaly": 181.71,
        "meta_ephemeris_type": 0,
        "meta_classification_type": "U",
        "meta_norad_cat_id": 37548,
        "meta_element_set_no": 999,
        "meta_rev_at_epoch": 65577,
        "meta_bstar": 0.00067405053,
        "meta_mean_motion_dot": 2.715e-05,
        "meta_mean_motion_ddot": 0,
        "tle_line1": "1 37548U 97051XH  25349.86077386  .00002715  00000+0  67405-3 0  9996",
        "tle_line2": "2 37548  86.3522  42.0105 0025815 178.4192 181.7100 14.51326297655778"
      },
      "geometry": {
        "type": "Point",
        "coordinates": [
          33.63882864564801,
          -43.63108593789786
        ]
      }
    },
    {
      "type": "Feature",
      "properties": {
        "norad_id": 37550,
        "name": "IRIDIUM 33 DEB",
        "group": "iridium-33-debris",
        "lat": 83.6050397563183,
        "lon": 163.09336798755567,
        "alt_km": 658.2518337920592,
        "timestamp": "2025-12-27T02:10:16.574806+00:00",
        "meta_object_name": "IRIDIUM 33 DEB",
        "meta_object_id": "1997-051XK",
        "meta_epoch": "2025-12-26T07:44:10.741056",
        "meta_mean_motion": 14.67388956,
        "meta_eccentricity": 0.0005507,
        "meta_inclination": 86.3774,
        "meta_ra_of_asc_node": 17.8536,
        "meta_arg_of_pericenter": 80.7353,
        "meta_mean_anomaly": 279.4484,
        "meta_ephemeris_type": 0,
        "meta_classification_type": "U",
        "meta_norad_cat_id": 37550,
        "meta_element_set_no": 999,
        "meta_rev_at_epoch": 86532,
        "meta_bstar": 0.001303,
        "meta_mean_motion_dot": 7.388e-05,
        "meta_mean_motion_ddot": 0,
        "tle_line1": "1 37550U 97051XK  25360.32234654  .00007388  00000+0  13030-2 0  9991",
        "tle_line2": "2 37550  86.3774  17.8536 0005507  80.7353 279.4484 14.67388956865329"
      },
      "geometry": {
        "type": "Point",
        "coordinates": [
          163.09336798755567,
          83.6050397563183
        ]
      }
    },
    {
      "type": "Feature",
      "properties": {
        "norad_id": 37562,
        "name": "IRIDIUM 33 DEB",
        "group": "iridium-33-debris",
        "lat": 70.91649746600729,
        "lon": -153.22228264442768,
        "alt_km": 684.5473263875692,
        "timestamp": "2025-12-27T02:10:16.574816+00:00",
        "meta_object_name": "IRIDIUM 33 DEB",
        "meta_object_id": "1997-051XX",
        "meta_epoch": "2025-12-25T20:34:30.178272",
        "meta_mean_motion": 14.56586789,
        "meta_eccentricity": 0.00262364,
        "meta_inclination": 86.3732,
        "meta_ra_of_asc_node": 37.8796,
        "meta_arg_of_pericenter": 66.6095,
        "meta_mean_anomaly": 59.6121,
        "meta_ephemeris_type": 0,
        "meta_classification_type": "U",
        "meta_norad_cat_id": 37562,
        "meta_element_set_no": 999,
        "meta_rev_at_epoch": 86519,
        "meta_bstar": 0.0010427091,
        "meta_mean_motion_dot": 4.687e-05,
        "meta_mean_motion_ddot": 0,
        "tle_line1": "1 37562U 97051XX  25359.85729373  .00004687  00000+0  10427-2 0  9993",
        "tle_line2": "2 37562  86.3732  37.8796 0026236  66.6095  59.6121 14.56586789865197"
      },
      "geometry": {
        "type": "Point",
        "coordinates": [
          -153.22228264442768,
          70.91649746600729
        ]
      }
    }
  ]
}